{"type": "FeatureCollection", "features": [ {"type": "Feature", "properties": {"norad_id": 34875, "name": "COSMOS 2251 DEB", "group": "cosmos-2251-debris", "lat": -59.04185988882975, "lon": 120.50959518708864, "alt_km": 725.3927165788691, "timestamp": "2025-12-17T15:50:10.177237+00:00", "meta": {"OBJECT_NAME": "COSMOS 2251 DEB", "OBJECT_ID": "1993-036ACN", "EPOCH": "2025-12-17T05:20:39.031872", "MEAN_MOTION": 14.48941246, "ECCENTRICITY": 0.00162186, "INCLINATION": 74.0434, "RA_OF_ASC_NODE": 149.8155, "ARG_OF_PERICENTER": 273.2302, "MEAN_ANOMALY": 264.2172, "EPHEMERIS_TYPE": 0, "CLASSIFICATION_TYPE": "U", "NORAD_CAT_ID": 34875, "ELEMENT_SET_NO": 999, "REV_AT_EPOCH": 87820, "BSTAR": 0.00035804654, "MEAN_MOTION_DOT": 1.331e-05, "MEAN_MOTION_DDOT": 0}, "tle": {"line1": "1 34875U 93036ACN 25351.22267398  .00001331  00000+0  35805-3 0  9994", "line2": "2 34875  74.0434 149.8155 0016218 273.2302 264.2172 14.48941246878203"}}, "geometry": {"type": "Point", "coordinates": [120.50959518708864, -59.04185988882975]}}, {"type": "Feature", "properties": {"norad_id": 34878, "name": "COSMOS 2251 DEB", "group": "cosmos-2251-debris", "lat": 10.439676874541595, "lon": 42.55578785044265, "alt_km": 774.9034657720695, "timestamp": "2025-12-17T15:50:10.177247+00:00", "meta": {"OBJECT_NAME": "COSMOS 2251 DEB", "OBJECT_ID": "1993-036ACR", "EPOCH": "2025-12-15T21:48:13.370976", "MEAN_MOTION": 13.44195012, "ECCENTRICITY": 0.04354662, "INCLINATION": 73.9648, "RA_OF_ASC_NODE": 42.2959, "ARG_OF_PERICENTER": 25.2, "MEAN_ANOMALY": 154.8462, "EPHEMERIS_TYPE": 0, "CLASSIFICATION_TYPE": "U", "NORAD_CAT_ID": 34878, "ELEMENT_SET_NO": 999, "REV_AT_EPOCH": 81315, "BSTAR": 0.00059672813, "MEAN_MOTION_DOT": 5.92e-06, "MEAN_MOTION_DDOT": 0}, "tle": {"line1": "1 34878U 93036ACR 25349.90848809  .00000592  00000+0  59673-3 0  9998", "line2": "2 34878  73.9648  42.2959 0435466  25.2000 154.8462 13.44195012813155"}}, "geometry": {"type": "Point", "coordinates": [42.55578785044265, 10.439676874541595]}}, {"type": "Feature", "properties": {"norad_id": 34882, "name": "COSMOS 2251 DEB", "group": "cosmos-2251-debris", "lat": 68.15836644778831, "lon": -9.349988444261907, "alt_km": 712.7239164693783, "timestamp": "2025-12-17T15:50:10.177257+00:00", "meta": {"OBJECT_NAME": "COSMOS 2251 DEB", "OBJECT_ID": "1993-036ACV", "EPOCH": "2025-12-16T08:08:53.829024", "MEAN_MOTION": 14.61604342, "ECCENTRICITY": 0.00829872, "INCLINATION": 74.0464, "RA_OF_ASC_NODE": 218.7097, "ARG_OF_PERICENTER": 344.8064, "MEAN_ANOMALY": 15.061, "EPHEMERIS_TYPE": 0, "CLASSIFICATION_TYPE": "U", "NORAD_CAT_ID": 34882, "ELEMENT_SET_NO": 999, "REV_AT_EPOCH": 88577, "BSTAR": 0.00014326394, "MEAN_MOTION_DOT": 7.15e-06, "MEAN_MOTION_DDOT": 0}, "tle": {"line1": "1 34882U 93036ACV 25350.33951191  .00000715  00000+0  14326-3 0  9994", "line2": "2 34882  74.0464 218.7097 0082987 344.8064  15.0610 14.61604342885778"}}, "geometry": {"type": "Point", "coordinates": [-9.349988444261907, 68.15836644778831]}}, {"type": "Feature", "properties": {"norad_id": 34883, "name": "COSMOS 2251 DEB", "group": "cosmos-2251-debris", "lat": -23.69216042030774, "lon": 46.408681984088304, "alt_km": 733.8435936834685, "timestamp": "2025-12-17T15:50:10.177268+00:00", "meta": {"OBJECT_NAME": "COSMOS 2251 DEB", "OBJECT_ID": "1993-036ACW", "EPOCH": "2025-12-16T03:33:44.508384", "MEAN_MOTION": 14.51615138, "ECCENTRICITY": 0.00951919, "INCLINATION": 74.1965, "RA_OF_ASC_NODE": 56.3649, "ARG_OF_PERICENTER": 240.9605, "MEAN_ANOMALY": 118.1996, "EPHEMERIS_TYPE": 0, "CLASSIFICATION_TYPE": "U", "NORAD_CAT_ID": 34883, "ELEMENT_SET_NO": 999, "REV_AT_EPOCH": 86489, "BSTAR": 0.0030222545, "MEAN_MOTION_DOT": 0.00012841, "MEAN_MOTION_DDOT": 0}, "tle": {"line1": "1 34883U 93036ACW 25350.14843181  .00012841  00000+0  30223-2 0  9999", "line2": "2 34883  74.1965  56.3649 0095191 240.9605 118.1996 14.51615138864899"}}, "geometry": {"type": "Point", "coordinates": [46.408681984088304, -23.69216042030774]}}, {"type": "Feature", "properties": {"norad_id": 34884, "name": "COSMOS 2251 DEB", "group": "cosmos-2251-debris", "lat": -48.89750011847191, "lon": -113.93771574703902, "alt_km": 605.3216478055565, "timestamp": "2025-12-17T15:50:10.177278+00:00", "meta": {"OBJECT_NAME": "COSMOS 2251 DEB", "OBJECT_ID": "1993-036ACX", "EPOCH": "2025-12-17T07:05:29.294880", "MEAN_MOTION": 14.90275523, "ECCENTRICITY": 0.00025374, "INCLINATION": 74.0178, "RA_OF_ASC_NODE": 47.6137, "ARG_OF_PERICENTER": 58.5651, "MEAN_ANOMALY": 18.986, "EPHEMERIS_TYPE": 0, "CLASSIFICATION_TYPE": "U", "NORAD_CAT_ID": 34884, "ELEMENT_SET_NO": 999, "REV_AT_EPOCH": 87873, "BSTAR": 0.0018198677, "MEAN_MOTION_DOT": 0.00017684, "MEAN_MOTION_DDOT": 0}, "tle": {"line1": "1 34884U 93036ACX 25351.29547795  .00017684  00000+0  18199-2 0  9997", "line2": "2 34884  74.0178  47.6137 0002537  58.5651  18.9860 14.90275523878734"}}, "geometry": {"type": "Point", "coordinates": [-113.93771574703902, -48.89750011847191]}}, {"type": "Feature", "properties": {"norad_id": 34885, "name": "COSMOS 2251 DEB", "group": "cosmos-2251-debris", "lat": 25.858381965183312, "lon": -14.22007997747717, "alt_km": 722.3984577275596, "timestamp": "2025-12-17T15:50:10.177289+00:00", "meta": {"OBJECT_NAME": "COSMOS 2251 DEB", "OBJECT_ID": "1993-036ACY", "EPOCH": "2025-12-16T23:07:54.744384", "MEAN_MOTION": 14.51524925, "ECCENTRICITY": 0.00151145, "INCLINATION": 74.0298, "RA_OF_ASC_NODE": 175.0683, "ARG_OF_PERICENTER": 260.487, "MEAN_ANOMALY": 217.0768, "EPHEMERIS_TYPE": 0, "CLASSIFICATION_TYPE": "U", "NORAD_CAT_ID": 34885, "ELEMENT_SET_NO": 999, "REV_AT_EPOCH": 87540, "BSTAR": 0.00052941132, "MEAN_MOTION_DOT": 2.093e-05, "MEAN_MOTION_DDOT": 0}, "tle": {"line1": "1 34885U 93036ACY 25350.96382806  .00002093  00000+0  52941-3 0  9993", "line2": "2 34885  74.0298 175.0683 0015114 260.4870 217.0768 14.51524925875402"}}, "geometry": {"type": "Point", "coordinates": [-14.22007997747717, 25.858381965183312]}}, {"type": "Feature", "properties": {"norad_id": 34886, "name": "COSMOS 2251 DEB", "group": "cosmos-2251-debris", "lat": -13.943482218936559, "lon": 166.22418636786796, "alt_km": 431.6100779407425, "timestamp": "2025-12-17T15:50:10.177299+00:00", "meta": {"OBJECT_NAME": "COSMOS 2251 DEB", "OBJECT_ID": "1993-036ACZ", "EPOCH": "2025-12-13T21:25:05.379168", "MEAN_MOTION": 15.38859949, "ECCENTRICITY": 0.00306549, "INCLINATION": 73.9501, "RA_OF_ASC_NODE": 178.4925, "ARG_OF_PERICENTER": 1.8054, "MEAN_ANOMALY": 358.3257, "EPHEMERIS_TYPE": 0, "CLASSIFICATION_TYPE": "U", "NORAD_CAT_ID": 34886, "ELEMENT_SET_NO": 999, "REV_AT_EPOCH": 63016, "BSTAR": 0.0017695785, "MEAN_MOTION_DOT": 0.00069737, "MEAN_MOTION_DDOT": 0}, "tle": {"line1": "1 34886U 93036ACZ 25347.89242337  .00069737  00000+0  17696-2 0  9991", "line2": "2 34886  73.9501 178.4925 0030654   1.8054 358.3257 15.38859949630168"}}, "geometry": {"type": "Point", "coordinates": [166.22418636786796, -13.943482218936559]}}, {"type": "Feature", "properties": {"norad_id": 34907, "name": "COSMOS 2251 DEB", "group": "cosmos-2251-debris", "lat": 33.06268048617482, "lon": 48.42893013063086, "alt_km": 415.4578045543167, "timestamp": "2025-12-17T15:50:10.177310+00:00", "meta": {"OBJECT_NAME": "COSMOS 2251 DEB", "OBJECT_ID": "1993-036ADC", "EPOCH": "2025-12-17T04:49:29.608896", "MEAN_MOTION": 15.47108573, "ECCENTRICITY": 0.00198331, "INCLINATION": 73.97, "RA_OF_ASC_NODE": 38.6476, "ARG_OF_PERICENTER": 335.0911, "MEAN_ANOMALY": 24.934, "EPHEMERIS_TYPE": 0, "CLASSIFICATION_TYPE": "U", "NORAD_CAT_ID": 34907, "ELEMENT_SET_NO": 999, "REV_AT_EPOCH": 88042, "BSTAR": 0.0062521516, "MEAN_MOTION_DOT": 0.0033298, "MEAN_MOTION_DDOT": 0}, "tle": {"line1": "1 34907U 93036ADC 25351.20103714  .00332980  00000+0  62522-2 0  9991", "line2": "2 34907  73.9700  38.6476 0019833 335.0911  24.9340 15.47108573880426"}}, "geometry": {"type": "Point", "coordinates": [48.42893013063086, 33.06268048617482]}}, {"type": "Feature", "properties": {"norad_id": 34908, "name": "COSMOS 2251 DEB", "group": "cosmos-2251-debris", "lat": -34.21200048179611, "lon": 3.409408692762252, "alt_km": 760.6103380567929, "timestamp": "2025-12-17T15:50:10.177319+00:00", "meta": {"OBJECT_NAME": "COSMOS 2251 DEB", "OBJECT_ID": "1993-036ADD", "EPOCH": "2025-12-17T07:43:17.668128", "MEAN_MOTION": 14.37411471, "ECCENTRICITY": 0.00402486, "INCLINATION": 74.0581, "RA_OF_ASC_NODE": 15.2366, "ARG_OF_PERICENTER": 29.9101, "MEAN_ANOMALY": 345.9244, "EPHEMERIS_TYPE": 0, "CLASSIFICATION_TYPE": "U", "NORAD_CAT_ID": 34908, "ELEMENT_SET_NO": 999, "REV_AT_EPOCH": 87345, "BSTAR": 0.00043107279, "MEAN_MOTION_DOT": 1.275e-05, "MEAN_MOTION_DDOT": 0}, "tle": {"line1": "1 34908U 93036ADD 25351.32173227  .00001275  00000+0  43107-3 0  9990", "line2": "2 34908  74.0581  15.2366 0040248  29.9101 345.9244 14.37411471873455"}}, "geometry": {"type": "Point", "coordinates": [3.409408692762252, -34.21200048179611]}}, {"type": "Feature", "properties": {"norad_id": 34909, "name": "COSMOS 2251 DEB", "group": "cosmos-2251-debris", "lat": 73.67247860176984, "lon": 168.7915742906955, "alt_km": 646.6926536870305, "timestamp": "2025-12-17T15:50:10.177330+00:00", "meta": {"OBJECT_NAME": "COSMOS 2251 DEB", "OBJECT_ID": "1993-036ADE", "EPOCH": "2025-12-16T23:09:48.199680", "MEAN_MOTION": 14.77871618, "ECCENTRICITY": 0.00842379, "INCLINATION": 74.015, "RA_OF_ASC_NODE": 68.2645, "ARG_OF_PERICENTER": 203.1131, "MEAN_ANOMALY": 156.6247, "EPHEMERIS_TYPE": 0, "CLASSIFICATION_TYPE": "U", "NORAD_CAT_ID": 34909, "ELEMENT_SET_NO": 999, "REV_AT_EPOCH": 66914, "BSTAR": 0.0004301691, "MEAN_MOTION_DOT": 3.247e-05, "MEAN_MOTION_DDOT": 0}, "tle": {"line1": "1 34909U 93036ADE 25350.96514120  .00003247  00000+0  43017-3 0  9992", "line2": "2 34909  74.0150  68.2645 0084237 203.1131 156.6247 14.77871618669147"}}, "geometry": {"type": "Point", "coordinates": [168.7915742906955, 73.67247860176984]}}]}